{
    "links": {
        "self": "http://www.neowsapp.com/rest/v1/neo/3781269?api_key=iIulBulltgU6a56xZRHN4H3l9WmuAYTsLGpBGhQ2"
    },
    "id": "3781269",
    "neo_reference_id": "3781269",
    "name": "(2017 QU34)",
    "designation": "2017 QU34",
    "nasa_jpl_url": "http://ssd.jpl.nasa.gov/sbdb.cgi?sstr=3781269",
    "absolute_magnitude_h": 28.3,
    "estimated_diameter": {
        "kilometers": {
            "estimated_diameter_min": 0.0058150704,
            "estimated_diameter_max": 0.0130028927
        },
        "meters": {
            "estimated_diameter_min": 5.8150703965,
            "estimated_diameter_max": 13.0028927004
        },
        "miles": {
            "estimated_diameter_min": 0.0036133161,
            "estimated_diameter_max": 0.0080796204
        },
        "feet": {
            "estimated_diameter_min": 19.0783155595,
            "estimated_diameter_max": 42.6604104873
        }
    },
    "is_potentially_hazardous_asteroid": false,
    "close_approach_data": [
        {
            "close_approach_date": "2017-08-25",
            "close_approach_date_full": "2017-Aug-25 02:02",
            "epoch_date_close_approach": 1503626520000,
            "relative_velocity": {
                "kilometers_per_second": "14.4657803449",
                "kilometers_per_hour": "52076.8092418042",
                "miles_per_hour": "32358.5040536088"
            },
            "miss_distance": {
                "astronomical": "0.0063077819",
                "lunar": "2.4537271591",
                "kilometers": "943630.736664553",
                "miles": "586344.9505867114"
            },
            "orbiting_body": "Moon"
        },
        {
            "close_approach_date": "2017-08-25",
            "close_approach_date_full": "2017-Aug-25 07:41",
            "epoch_date_close_approach": 1503646860000,
            "relative_velocity": {
                "kilometers_per_second": "14.7677470634",
                "kilometers_per_hour": "53163.8894283584",
                "miles_per_hour": "33033.9734061931"
            },
            "miss_distance": {
                "astronomical": "0.0071271896",
                "lunar": "2.7724767544",
                "kilometers": "1066212.383246152",
                "miles": "662513.6537828176"
            },
            "orbiting_body": "Earth"
        }
    ],
    "orbital_data": {
        "orbit_id": "1",
        "orbit_determination_date": "2017-08-31 20:12:42",
        "first_observation_date": "2017-08-28",
        "last_observation_date": "2017-08-31",
        "data_arc_in_days": 3,
        "observations_used": 23,
        "orbit_uncertainty": "8",
        "minimum_orbit_intersection": ".00337502",
        "jupiter_tisserand_invariant": "3.371",
        "epoch_osculation": "2457995.5",
        "eccentricity": ".6215278813662988",
        "semi_major_axis": "2.213814381665963",
        "inclination": "3.134886512556088",
        "ascending_node_longitude": "154.933998547145",
        "orbital_period": "1203.123565927949",
        "perihelion_distance": ".8378670192908741",
        "perihelion_argument": "120.0530932471833",
        "aphelion_distance": "3.589761744041051",
        "perihelion_time": "2457951.229885419067",
        "mean_anomaly": "13.24655397040931",
        "mean_motion": ".2992211358792046",
        "equinox": "J2000",
        "orbit_class": {
            "orbit_class_type": "APO",
            "orbit_class_description": "Near-Earth asteroid orbits which cross the Earth’s orbit similar to that of 1862 Apollo",
            "orbit_class_range": "a (semi-major axis) > 1.0 AU; q (perihelion) < 1.017 AU"
        }
    },
    "is_sentry_object": false
}